[{"OBJECT_NAME":"TOMORROW-S9","OBJECT_ID":"2025-248S","EPOCH":"2026-03-09T00:52:57.672768","MEAN_MOTION":15.1924557,"ECCENTRICITY":0.00037045,"INCLINATION":45.4048,"RA_OF_ASC_NODE":298.2875,"ARG_OF_PERICENTER":215.4557,"MEAN_ANOMALY":144.6083,"EPHEMERIS_TYPE":0,"CLASSIFICATION_TYPE":"U","NORAD_CAT_ID":66309,"ELEMENT_SET_NO":999,"REV_AT_EPOCH":1927,"BSTAR":0.00031245466,"MEAN_MOTION_DOT":6.428e-5,"MEAN_MOTION_DDOT":0},{"OBJECT_NAME":"SITRO-TD-3","OBJECT_ID":"2025-313Y","EPOCH":"2026-03-09T22:34:33.372192","MEAN_MOTION":15.21559953,"ECCENTRICITY":0.00145757,"INCLINATION":97.4011,"RA_OF_ASC_NODE":145.2018,"ARG_OF_PERICENTER":358.2913,"MEAN_ANOMALY":1.827,"EPHEMERIS_TYPE":0,"CLASSIFICATION_TYPE":"U","NORAD_CAT_ID":67270,"ELEMENT_SET_NO":999,"REV_AT_EPOCH":1085,"BSTAR":0.00053243574,"MEAN_MOTION_DOT":0.00011975,"MEAN_MOTION_DDOT":0}]
